EROS C3                 
1 54880U 22179A   26201.13748301  .00002968  00000+0  15997-3 0  9992
2 54880 139.3349 193.1284 0008251 213.8169 146.2112 15.11060126197314
