{"fetched_at":"2026-07-20T18:29:18.139Z","source":"https://celestrak.org/NORAD/elements/gp.php?NAME=EROS&FORMAT=JSON","constellation":"eros","records":[{"OBJECT_NAME":"EROS C3","OBJECT_ID":"2022-179A","EPOCH":"2026-07-20T03:17:58.532064","CLASSIFICATION_TYPE":"U","MEAN_MOTION":15.11060126,"ECCENTRICITY":0.00082517,"INCLINATION":139.3349,"RA_OF_ASC_NODE":193.1284,"ARG_OF_PERICENTER":213.8169,"MEAN_ANOMALY":146.2112,"EPHEMERIS_TYPE":0,"NORAD_CAT_ID":54880,"ELEMENT_SET_NO":999,"REV_AT_EPOCH":19731,"BSTAR":0.00015996541,"MEAN_MOTION_DOT":0.00002968,"MEAN_MOTION_DDOT":0}]}
